[{"OBJECT_NAME":"STARLINK-4331","OBJECT_ID":"2022-077D","EPOCH":"2026-03-09T22:56:43.694592","MEAN_MOTION":15.05646487,"ECCENTRICITY":0.00018087,"INCLINATION":97.6022,"RA_OF_ASC_NODE":251.581,"ARG_OF_PERICENTER":88.4059,"MEAN_ANOMALY":271.7375,"EPHEMERIS_TYPE":0,"CLASSIFICATION_TYPE":"U","NORAD_CAT_ID":53046,"ELEMENT_SET_NO":999,"REV_AT_EPOCH":20103,"BSTAR":7.98898e-7,"MEAN_MOTION_DOT":-4.9e-7,"MEAN_MOTION_DDOT":0},{"OBJECT_NAME":"OBJECT K","OBJECT_ID":"2017-042K","EPOCH":"2026-03-09T21:28:20.621568","MEAN_MOTION":15.07994228,"ECCENTRICITY":0.00097557,"INCLINATION":97.4104,"RA_OF_ASC_NODE":233.8721,"ARG_OF_PERICENTER":49.2775,"MEAN_ANOMALY":310.9299,"EPHEMERIS_TYPE":0,"CLASSIFICATION_TYPE":"U","NORAD_CAT_ID":42834,"ELEMENT_SET_NO":999,"REV_AT_EPOCH":47201,"BSTAR":0.00042776846,"MEAN_MOTION_DOT":6.528e-5,"MEAN_MOTION_DDOT":0}]
